NORAD_CAT_ID,OBJECT_NAME,OBJECT_TYPE,EPOCH,MEAN_MOTION,ECCENTRICITY,INCLINATION,RA_OF_ASC_NODE,ARG_OF_PERICENTER,MEAN_ANOMALY,BSTAR,MEAN_MOTION_DOT,MEAN_MOTION_DDOT,TLE_LINE0,TLE_LINE1,TLE_LINE2,SEMIMAJOR_AXIS,PERIOD,APOGEE,PERIGEE,DECAYED
52491.0,STARLINK-3908,PAYLOAD,2023-12-27 13:00:16,15.08846343,0.000159,53.2179,54.59,89.9919,270.1256,0.00018467,2.653e-05,0.0,0 STARLINK-3908,1 52491U 22049AS  23361.54185408  .00002653  00000-0  18467-3 0  9993,2 52491  53.2179  54.5900 0001590  89.9919 270.1256 15.08846343 91143,6917.861,95.437,540.826,538.626,0.0
52491.0,STARLINK-3908,PAYLOAD,2023-12-28 03:18:45,15.08836878,0.0001552,53.2177,51.9133,75.0179,285.0985,5.273e-05,5.51e-06,0.0,0 STARLINK-3908,1 52491U 22049AS  23362.13802504  .00000551  00000-0  52730-4 0  9999,2 52491  53.2177  51.9133 0001552  75.0179 285.0985 15.08836878 91395,6917.89,95.438,540.829,538.681,0.0
52491.0,STARLINK-3908,PAYLOAD,2023-12-28 09:40:17,15.08842095,0.0001635,53.2174,50.7237,92.7683,267.3496,8.6454e-05,1.088e-05,0.0,0 STARLINK-3908,1 52491U 22049AS  23362.40298003  .00001088  00000-0  86454-4 0  9998,2 52491  53.2174  50.7237 0001635  92.7683 267.3496 15.08842095 91435,6917.874,95.437,540.87,538.608,0.0
52491.0,STARLINK-3908,PAYLOAD,2023-12-29 09:31:04,15.08841926,0.0001608,53.2176,46.2654,80.67,279.4474,-3.2881e-05,-8.11e-06,0.0,0 STARLINK-3908,1 52491U 22049AS  23363.39658464 -.00000811  00000-0 -32881-4 0  9998,2 52491  53.2176  46.2654 0001608  80.6700 279.4474 15.08841926 91584,6917.875,95.437,540.852,538.627,0.0
52491.0,STARLINK-3908,PAYLOAD,2023-12-30 03:00:16,15.08869786,0.0001645,53.2187,42.9958,77.5842,282.5335,0.0002792,4.162e-05,0.0,0 STARLINK-3908,1 52491U 22049AS  23364.12518699  .00004162  00000-0  27920-3 0  9993,2 52491  53.2187  42.9958 0001645  77.5842 282.5335 15.08869786 91696,6917.789,95.436,540.792,538.516,0.0
52491.0,STARLINK-3908,PAYLOAD,2023-12-30 09:21:51,15.08831709,0.000137,53.2176,41.8046,100.11,260.0047,-5.6123e-05,-1.181e-05,0.0,0 STARLINK-3908,1 52491U 22049AS  23364.39017907 -.00001181  00000-0 -56123-4 0  9996,2 52491  53.2176  41.8046 0001370 100.1100 260.0047 15.08831709 91735,6917.906,95.438,540.718,538.823,0.0
52491.0,STARLINK-3908,PAYLOAD,2023-12-31 02:51:06,15.08822984,0.0001318,53.2173,38.5307,94.12,265.9943,-0.00011953,-2.189e-05,0.0,0 STARLINK-3908,1 52491U 22049AS  23365.11883048 -.00002189  00000-0 -11953-3 0  9994,2 52491  53.2173  38.5307 0001318  94.1200 265.9943 15.08822984 91846,6917.932,95.439,540.709,538.886,0.0
52491.0,STARLINK-3908,PAYLOAD,2023-12-31 12:23:25,15.08827298,0.0001351,53.2173,36.747,91.4248,268.6899,-7.2436e-05,-1.44e-05,0.0,0 STARLINK-3908,1 52491U 22049AS  23365.51626956 -.00001440  00000-0 -72436-4 0  9994,2 52491  53.2173  36.7470 0001351  91.4248 268.6899 15.08827298 91906,6917.919,95.438,540.719,538.85,0.0
52491.0,STARLINK-3908,PAYLOAD,2024-01-01 07:28:00,15.08917825,0.0001508,53.2176,33.18,80.4164,279.6999,-0.0010464,-0.00016938,0.0,0 STARLINK-3908,1 52491U 22049AS  24001.31111922 -.00016938  00000-0 -10464-2 0  9991,2 52491  53.2176  33.1800 0001508  80.4164 279.6999 15.08917825 92029,6917.643,95.433,540.551,538.464,0.0
52491.0,STARLINK-3908,PAYLOAD,2024-01-02 12:04:59,15.08833806,0.0001288,53.2174,27.8265,91.1803,268.9337,0.00017916,2.564e-05,0.0,0 STARLINK-3908,1 52491U 22049AS  24002.50346580  .00002564  00000-0  17916-3 0  9991,2 52491  53.2174  27.8265 0001288  91.1803 268.9337 15.08833806 92209,6917.899,95.438,540.655,538.873,0.0
52491.0,STARLINK-3908,PAYLOAD,2024-01-02 13:40:22,15.08837541,0.0001289,53.2178,27.5304,88.6069,271.5071,0.00021078,3.068e-05,0.0,0 STARLINK-3908,1 52491U 22049AS  24002.56970338  .00003068  00000-0  21078-3 0  9995,2 52491  53.2178  27.5304 0001289  88.6069 271.5071 15.08837541 92058,6917.888,95.438,540.645,538.861,0.0
52491.0,STARLINK-3908,PAYLOAD,2024-01-03 08:45:00,15.08838453,0.0001496,53.2178,23.9665,79.3706,280.7455,4.3453e-05,4.04e-06,0.0,0 STARLINK-3908,1 52491U 22049AS  24003.36459125  .00000404  00000-0  43453-4 0  9993,2 52491  53.2178  23.9665 0001496  79.3706 280.7455 15.08838453 92177,6917.885,95.438,540.785,538.715,0.0
52491.0,STARLINK-3908,PAYLOAD,2024-01-04 08:35:47,15.08841739,0.0001587,53.2182,19.5059,87.9275,272.1899,7.6053e-05,9.23e-06,0.0,0 STARLINK-3908,1 52491U 22049AS  24004.35818953  .00000923  00000-0  76053-4 0  9999,2 52491  53.2182  19.5059 0001587  87.9275 272.1899 15.08841739 92489,6917.875,95.437,540.838,538.642,0.0
52491.0,STARLINK-3908,PAYLOAD,2024-01-05 06:51:11,15.0882829,0.0001401,53.2169,15.3373,99.4111,260.704,0.00017702,2.53e-05,0.0,0 STARLINK-3908,1 52491U 22049AS  24005.28555459  .00002530  00000-0  17702-3 0  9992,2 52491  53.2169  15.3373 0001401  99.4111 260.7040 15.08828290 92623,6917.916,95.438,540.75,538.812,0.0
52491.0,STARLINK-3908,PAYLOAD,2024-01-06 03:31:11,15.08845905,0.0001467,53.2171,11.4711,100.5768,259.5389,9.74e-05,1.263e-05,0.0,0 STARLINK-3908,1 52491U 22049AS  24006.14666609  .00001263  00000-0  97400-4 0  9994,2 52491  53.2171  11.4711 0001467 100.5768 259.5389 15.08845905 92751,6917.862,95.437,540.742,538.712,0.0
52491.0,STARLINK-3908,PAYLOAD,2024-01-06 09:52:44,15.08850247,0.0001479,53.2171,10.2814,96.6581,263.4579,0.00013249,1.822e-05,0.0,0 STARLINK-3908,1 52491U 22049AS  24006.41162199  .00001822  00000-0  13249-3 0  9998,2 52491  53.2171  10.2814 0001479  96.6581 263.4579 15.08850247 92630,6917.849,95.437,540.737,538.691,0.0
52491.0,STARLINK-3908,PAYLOAD,2024-01-07 04:57:22,15.08832593,0.000149,53.2176,6.7099,101.0745,259.0415,0.00014385,2.002e-05,0.0,0 STARLINK-3908,1 52491U 22049AS  24007.20651257  .00002002  00000-0  14385-3 0  9997,2 52491  53.2176   6.7099 0001490 101.0745 259.0415 15.08832593 92911,6917.903,95.438,540.799,538.737,0.0
52491.0,STARLINK-3908,PAYLOAD,2024-01-07 09:43:32,15.08832962,0.0001497,53.2175,5.8183,96.9346,263.1816,0.0001506,2.109e-05,0.0,0 STARLINK-3908,1 52491U 22049AS  24007.40523287  .00002109  00000-0  15060-3 0  9999,2 52491  53.2175   5.8183 0001497  96.9346 263.1816 15.08832962 92786,6917.902,95.438,540.803,538.731,0.0
52491.0,STARLINK-3908,PAYLOAD,2024-01-08 03:12:46,15.08844366,0.0001495,53.2178,2.5465,102.7271,257.3888,1.7458e-05,-1e-07,0.0,0 STARLINK-3908,1 52491U 22049AS  24008.13386735 -.00000010  00000-0  17458-4 0  9999,2 52491  53.2178   2.5465 0001495 102.7271 257.3888 15.08844366 93053,6917.867,95.437,540.766,538.698,0.0
52491.0,STARLINK-3908,PAYLOAD,2024-01-08 04:48:09,15.08845838,0.00015,53.2176,2.2503,99.1275,260.9887,2.864e-05,1.68e-06,0.0,0 STARLINK-3908,1 52491U 22049AS  24008.20010636  .00000168  00000-0  28640-4 0  9999,2 52491  53.2176   2.2503 0001500  99.1275 260.9887 15.08845838 92908,6917.863,95.437,540.765,538.69,0.0
52491.0,STARLINK-3908,PAYLOAD,2024-01-09 04:38:56,15.08837182,0.0001513,53.2175,357.79,106.7718,253.344,7.6714e-05,9.33e-06,0.0,0 STARLINK-3908,1 52491U 22049AS  24009.19371113  .00000933  00000-0  76714-4 0  9993,2 52491  53.2175 357.7900 0001513 106.7718 253.3440 15.08837182 93216,6917.889,95.438,540.801,538.707,0.0
52491.0,STARLINK-3908,PAYLOAD,2024-01-09 09:25:06,15.08838291,0.0001495,53.2174,356.8985,99.8794,260.2367,6.5521e-05,7.55e-06,0.0,0 STARLINK-3908,1 52491U 22049AS  24009.39243145  .00000755  00000-0  65521-4 0  9994,2 52491  53.2174 356.8985 0001495  99.8794 260.2367 15.08838291 93085,6917.886,95.438,540.785,538.716,0.0
52491.0,STARLINK-3908,PAYLOAD,2024-01-10 07:40:29,15.0884128,0.0001528,53.2173,352.7339,107.0318,253.0842,8.278e-05,1.03e-05,0.0,0 STARLINK-3908,1 52491U 22049AS  24010.31979124  .00001030  00000-0  82780-4 0  9994,2 52491  53.2173 352.7339 0001528 107.0318 253.0842 15.08841280 93386,6917.876,95.437,540.799,538.684,0.0
52491.0,STARLINK-3908,PAYLOAD,2024-01-11 05:55:53,15.08847137,0.0001451,53.2179,348.572,96.6524,263.4633,0.00013151,1.806e-05,0.0,0 STARLINK-3908,1 52491U 22049AS  24011.24714895  .00001806  00000-0  13151-3 0  9995,2 52491  53.2179 348.5720 0001451  96.6524 263.4633 15.08847137 93364,6917.859,95.437,540.727,538.72,0.0
52491.0,STARLINK-3908,PAYLOAD,2024-01-11 21:49:45,15.08837798,0.0001655,53.2194,345.6083,65.6081,294.5084,0.00012937,1.771e-05,0.0,0 STARLINK-3908,1 52491U 22049AS  24011.90955708  .00001771  00000-0  12937-3 0  9990,2 52491  53.2194 345.6083 0001655  65.6081 294.5084 15.08837798 93469,6917.887,95.438,540.897,538.607,0.0
52491.0,STARLINK-3908,PAYLOAD,2024-01-12 04:11:18,15.08839702,0.0001758,53.2188,344.4147,75.5632,284.5556,2.2204e-05,6.5e-07,0.0,0 STARLINK-3908,1 52491U 22049AS  24012.17452025  .00000065  00000-0  22204-4 0  9998,2 52491  53.2188 344.4147 0001758  75.5632 284.5556 15.08839702 93668,6917.881,95.438,540.962,538.53,0.0
52491.0,STARLINK-3908,PAYLOAD,2024-01-12 05:46:41,15.08844122,0.000177,53.2196,344.1164,76.7492,283.3698,6.3714e-05,7.26e-06,0.0,0 STARLINK-3908,1 52491U 22049AS  24012.24075667  .00000726  00000-0  63714-4 0  9994,2 52491  53.2196 344.1164 0001770  76.7492 283.3698 15.08844122 93514,6917.868,95.437,540.957,538.508,0.0
52491.0,STARLINK-3908,PAYLOAD,2024-01-12 21:40:33,15.08840838,0.0001686,53.2187,341.1431,74.0819,286.0359,3.3959e-05,2.52e-06,0.0,0 STARLINK-3908,1 52491U 22049AS  24012.90316069  .00000252  00000-0  33959-4 0  9993,2 52491  53.2187 341.1431 0001686  74.0819 286.0359 15.08840838 93613,6917.878,95.438,540.909,538.576,0.0
52491.0,STARLINK-3908,PAYLOAD,2024-01-13 04:02:05,15.08841253,0.0001528,53.2198,339.9555,74.8605,285.2556,6.7177e-05,7.81e-06,0.0,0 STARLINK-3908,1 52491U 22049AS  24013.16811899  .00000781  00000-0  67177-4 0  9999,2 52491  53.2198 339.9555 0001528  74.8605 285.2556 15.08841253 93659,6917.877,95.437,540.799,538.685,0.0
52491.0,STARLINK-3908,PAYLOAD,2024-01-14 03:52:52,15.08843586,0.0001635,53.2195,335.4909,87.0922,273.0257,3.5368e-05,2.75e-06,0.0,0 STARLINK-3908,1 52491U 22049AS  24014.16171968  .00000275  00000-0  35368-4 0  9991,2 52491  53.2195 335.4909 0001635  87.0922 273.0257 15.08843586 93965,6917.869,95.437,540.865,538.603,0.0
